{
  "type": "FeatureCollection",
  "generator": "overpass-ide",
  "copyright": "The data included in this document is from www.openstreetmap.org. The data is made available under ODbL.",
  "timestamp": "2023-09-23T14:01:21Z",
  "features": [
    {
      "type": "Feature",
      "properties": {
        "@id": "node/288036753",
        "addr:city": "Aberdeen",
        "addr:housenumber": "13",
        "addr:postcode": "AB11 6NU",
        "addr:street": "Hadden Street",
        "amenity": "pub",
        "fhrs:authority": "Aberdeen City",
        "fhrs:id": "1346900",
        "fhrs:local_authority_id": "1258",
        "name": "The Market Arms",
        "source:addr": "https://www.facebook.com/TheMarketArmsAberdeen"
      },
      "geometry": {
        "type": "Point",
        "coordinates": [
          -2.0978495,
          57.1459838
        ]
      },
      "id": "node/288036753"
    },
    {
      "type": "Feature",
      "properties": {
        "@id": "node/288036760",
        "addr:city": "Aberdeen",
        "addr:housenumber": "61",
        "addr:postcode": "AB11 6NY",
        "addr:street": "The Green",
        "amenity": "pub",
        "fhrs:authority": "Aberdeen City",
        "fhrs:id": "1337362",
        "fhrs:local_authority_id": "EHDC608",
        "name": "The Old Kings Highway",
        "source": "survey"
      },
      "geometry": {
        "type": "Point",
        "coordinates": [
          -2.0994094,
          57.1458404
        ]
      },
      "id": "node/288036760"
    },
    {
      "type": "Feature",
      "properties": {
        "@id": "node/290629629",
        "addr:city": "Aberdeen",
        "addr:country": "GB",
        "addr:housenumber": "504",
        "addr:postcode": "AB10 1TT",
        "addr:street": "Union Street",
        "alt_name": "McGinty's Pub",
        "amenity": "pub",
        "contact:instagram": "https://www.instagram.com/mcgintysaberdeen/",
        "contact:tripadvisor": "https://www.tripadvisor.co.uk/Restaurant_Review-g186487-d2394632-Reviews-McGinty_s_Meal_an_Ale-Aberdeen_Aberdeenshire_Scotland.html",
        "email": "info@mcgintysmealanale.co.uk",
        "fhrs:authority": "Aberdeen City",
        "fhrs:id": "593714",
        "fhrs:local_authority_id": "EHDC9892",
        "name": "McGinty’s Meal an’ Ale",
        "old_fhrs:id": "150676",
        "opening_hours": "Mo-Fr 16:00-22:30; Sa,Su 12:00-22:30",
        "operator": "The McGinty’s Group",
        "phone": "+44 1224 626720",
        "source:addr": "fhrs",
        "website": "https://www.mcgintysmealanale.co.uk/"
      },
      "geometry": {
        "type": "Point",
        "coordinates": [
          -2.1119763,
          57.1430036
        ]
      },
      "id": "node/290629629"
    },
    {
      "type": "Feature",
      "properties": {
        "@id": "way/314093681",
        "addr:city": "Aberdeen",
        "addr:housenumber": "7",
        "addr:postcode": "AB10 1HF",
        "addr:street": "St Nicholas Lane",
        "amenity": "pub",
        "brand": "Belhaven Pubs",
        "brand:wikidata": "Q105516156",
        "building": "yes",
        "fhrs:authority": "Aberdeen City",
        "fhrs:id": "593567",
        "fhrs:local_authority_id": "EHDC9309",
        "name": "Prince of Wales",
        "operator": "Belhaven Pubs",
        "source": "knowledge",
        "source:addr": "fhrs",
        "source:position": "knowledge;estimated",
        "@geometry": "center"
      },
      "geometry": {
        "type": "Point",
        "coordinates": [
          -2.0983718,
          57.1470599
        ]
      },
      "id": "way/314093681"
    },
    {
      "type": "Feature",
      "properties": {
        "@id": "way/314692115",
        "addr:city": "Aberdeen",
        "addr:housenumber": "14-18",
        "addr:postcode": "AB10 1JH",
        "addr:street": "Belmont Street",
        "amenity": "pub",
        "building": "yes",
        "contact:website": "http://www.eerie-pubs.co.uk/slains-castle",
        "fhrs:authority": "Aberdeen City",
        "fhrs:id": "867992",
        "fhrs:local_authority_id": "EHDC11965",
        "food": "yes",
        "name": "Slains Castle",
        "operator": "Stonegate",
        "source": "knowledge",
        "source:addr": "FHRS",
        "@geometry": "center"
      },
      "geometry": {
        "type": "Point",
        "coordinates": [
          -2.1008565,
          57.1466824
        ]
      },
      "id": "way/314692115"
    },
    {
      "type": "Feature",
      "properties": {
        "@id": "way/314724910",
        "addr:city": "Aberdeen",
        "addr:postcode": "AB10 1JG",
        "addr:street": "Little Belmont Street",
        "amenity": "pub",
        "brand": "Belhaven Pubs",
        "brand:wikidata": "Q105516156",
        "building": "commercial",
        "contact:website": "http://www.oldschoolhouse-aberdeen.co.uk/",
        "fhrs:authority": "Aberdeen City",
        "fhrs:id": "593362",
        "fhrs:local_authority_id": "EHDC8256",
        "name": "The Old School House",
        "operator": "Belhaven Pubs",
        "source": "knowledge",
        "source:addr": "FHRS",
        "@geometry": "center"
      },
      "geometry": {
        "type": "Point",
        "coordinates": [
          -2.1009697,
          57.1470549
        ]
      },
      "id": "way/314724910"
    },
    {
      "type": "Feature",
      "properties": {
        "@id": "way/314725971",
        "addr:city": "Aberdeen",
        "addr:housenumber": "17-19",
        "addr:postcode": "AB10 1JR",
        "addr:street": "Belmont Street",
        "amenity": "pub",
        "brand": "Belhaven Pubs",
        "brand:wikidata": "Q105516156",
        "building": "yes",
        "check_date": "2023-06-24",
        "fhrs:authority": "Aberdeen City",
        "fhrs:id": "592238",
        "fhrs:local_authority_id": "EHDC10310",
        "name": "Wild Boar",
        "phone": "+44 1244 625357",
        "smoking": "no",
        "source": "survey",
        "source:addr": "fhrs",
        "source:shape": "bing-based NLS",
        "website": "https://www.belhavenpubs.co.uk/pubs/aberdeenshire/wild-boar/",
        "@geometry": "center"
      },
      "geometry": {
        "type": "Point",
        "coordinates": [
          -2.1015968,
          57.1466156
        ]
      },
      "id": "way/314725971"
    },
    {
      "type": "Feature",
      "properties": {
        "@id": "way/404600165",
        "addr:city": "Aberdeen",
        "addr:housenumber": "9",
        "addr:postcode": "AB10 1JN",
        "addr:street": "Back Wynd",
        "amenity": "pub",
        "brand": "O'Neill's",
        "brand:wikidata": "Q7071905",
        "building": "yes",
        "fhrs:authority": "Aberdeen City",
        "fhrs:id": "592758",
        "fhrs:local_authority_id": "EHDC2020",
        "name": "O'Neill's",
        "source:addr": "FHRS",
        "source:shape": "bing-based NLS",
        "@geometry": "center"
      },
      "geometry": {
        "type": "Point",
        "coordinates": [
          -2.1001652,
          57.1468394
        ]
      },
      "id": "way/404600165"
    },
    {
      "type": "Feature",
      "properties": {
        "@id": "node/595490589",
        "addr:city": "Aberdeen",
        "addr:postcode": "AB10 1JS",
        "addr:street": "Schoolhill",
        "amenity": "pub",
        "fhrs:authority": "Aberdeen City",
        "fhrs:id": "592923",
        "fhrs:local_authority_id": "EHDC3395",
        "name": "Triple Kirks",
        "operator": "Stonegate",
        "outdoor_seating": "yes",
        "source": "survey",
        "source:addr": "FHRS"
      },
      "geometry": {
        "type": "Point",
        "coordinates": [
          -2.1023748,
          57.1476337
        ]
      },
      "id": "node/595490589"
    },
    {
      "type": "Feature",
      "properties": {
        "@id": "way/636141920",
        "addr:city": "Aberdeen",
        "addr:housenumber": "57-59",
        "addr:postcode": "AB10 1AU",
        "addr:street": "Netherkirkgate",
        "amenity": "pub",
        "building": "yes",
        "fhrs:authority": "Aberdeen City",
        "fhrs:id": "592888",
        "fhrs:local_authority_id": "EHDC3111",
        "name": "Frigate Bar",
        "source:addr": "fhrs",
        "@geometry": "center"
      },
      "geometry": {
        "type": "Point",
        "coordinates": [
          -2.0972304,
          57.147321
        ]
      },
      "id": "way/636141920"
    },
    {
      "type": "Feature",
      "properties": {
        "@id": "node/864934541",
        "addr:city": "Aberdeen",
        "addr:country": "GB",
        "addr:housenumber": "67-69",
        "addr:postcode": "AB25 1NR",
        "addr:street": "Rosemount Viaduct",
        "amenity": "pub",
        "contact:facebook": "https://www.facebook.com/MasadaBar/",
        "fhrs:authority": "Aberdeen City",
        "fhrs:id": "1346913",
        "fhrs:local_authority_id": "1270",
        "name": "Masada Bar",
        "note:source:addr": "these have same entry in fhrs",
        "source:addr": "fhrs"
      },
      "geometry": {
        "type": "Point",
        "coordinates": [
          -2.1092637,
          57.148273
        ]
      },
      "id": "node/864934541"
    },
    {
      "type": "Feature",
      "properties": {
        "@id": "way/923091891",
        "addr:city": "Aberdeen",
        "addr:housenumber": "17",
        "addr:postcode": "AB25 1EB",
        "addr:street": "Gallowgate",
        "amenity": "pub",
        "brand": "BrewDog",
        "brand:wikidata": "Q911367",
        "brand:wikipedia": "en:BrewDog",
        "building": "retail",
        "check_date": "2023-06-24",
        "fhrs:authority": "Aberdeen City",
        "fhrs:id": "1347986",
        "fhrs:local_authority_id": "316",
        "internet_access": "wlan",
        "internet_access:fee": "no",
        "name": "BrewDog Flagship",
        "old_name": "The Marischal",
        "smoking": "outside",
        "source:addr": "fhrs",
        "toilets:wheelchair": "no",
        "website": "https://www.brewdog.com/bars/aberdeen",
        "wheelchair": "yes",
        "@geometry": "center"
      },
      "geometry": {
        "type": "Point",
        "coordinates": [
          -2.0978968,
          57.1494578
        ]
      },
      "id": "way/923091891"
    },
    {
      "type": "Feature",
      "properties": {
        "@id": "way/942350482",
        "addr:city": "Aberdeen",
        "addr:housenumber": "5",
        "addr:postcode": "AB25 1UW",
        "addr:street": "Gilcomston Steps",
        "amenity": "pub",
        "building": "yes",
        "contact:website": "http://www.gilcomstonbar.co.uk/",
        "fhrs:authority": "Aberdeen City",
        "fhrs:id": "592458",
        "fhrs:local_authority_id": "EHDC10896",
        "fhrs:localauthoritybusinessID": "EHDC10896",
        "name": "Gilcomston Bar",
        "roof:shape": "gabled",
        "source": "survey",
        "source:addr": "fhrs",
        "@geometry": "center"
      },
      "geometry": {
        "type": "Point",
        "coordinates": [
          -2.1071555,
          57.1501489
        ]
      },
      "id": "way/942350482"
    },
    {
      "type": "Feature",
      "properties": {
        "@id": "way/1201995100",
        "addr:city": "Aberdeen",
        "addr:housenumber": "1",
        "addr:postcode": "AB10 1JN",
        "addr:street": "Back Wynd",
        "alt_name": "99 Bar & Kitchen",
        "amenity": "pub",
        "building": "yes",
        "fhrs:authority": "Aberdeen City",
        "fhrs:id": "696448",
        "fhrs:local_authority_id": "EHDC11473",
        "name": "Ninety-Nine Bar & Kitchen",
        "source:addr": "FHRS",
        "@geometry": "center"
      },
      "geometry": {
        "type": "Point",
        "coordinates": [
          -2.0999972,
          57.1465196
        ]
      },
      "id": "way/1201995100"
    },
    {
      "type": "Feature",
      "properties": {
        "@id": "node/2315882329",
        "addr:city": "Aberdeen",
        "addr:housenumber": "43-49",
        "addr:postcode": "AB25 1LN",
        "addr:street": "John Street",
        "amenity": "pub",
        "fhrs:authority": "Aberdeen City",
        "fhrs:id": "593477",
        "fhrs:local_authority_id": "EHDC8898",
        "name": "Coopers Bar",
        "source": "survey",
        "source:addr": "fhrs"
      },
      "geometry": {
        "type": "Point",
        "coordinates": [
          -2.103103,
          57.1508776
        ]
      },
      "id": "node/2315882329"
    },
    {
      "type": "Feature",
      "properties": {
        "@id": "node/2466580235",
        "addr:city": "Aberdeen",
        "addr:housenumber": "31-36",
        "addr:postcode": "AB25 1NQ",
        "addr:street": "Rosemount Viaduct",
        "amenity": "pub",
        "contact:website": "http://www.nooseandmonkey.com/",
        "fhrs:authority": "Aberdeen City",
        "fhrs:id": "1347054",
        "fhrs:local_authority_id": "1414",
        "food": "yes",
        "name": "Noose & Monkey",
        "source": "survey",
        "source:addr": "FHRS"
      },
      "geometry": {
        "type": "Point",
        "coordinates": [
          -2.1079699,
          57.1477906
        ]
      },
      "id": "node/2466580235"
    },
    {
      "type": "Feature",
      "properties": {
        "@id": "node/2525781630",
        "addr:city": "Aberdeen",
        "addr:housenumber": "18",
        "addr:postcode": "AB10 1BA",
        "addr:street": "Upperkirkgate",
        "amenity": "pub",
        "check_date": "2023-06-23",
        "fhrs:authority": "Aberdeen City",
        "fhrs:id": "1346790",
        "fhrs:local_authority_id": "1143",
        "name": "Kirkgate Bar",
        "smoking": "outside",
        "source": "survey;bing",
        "source:addr": "fhrs",
        "wheelchair": "limited"
      },
      "geometry": {
        "type": "Point",
        "coordinates": [
          -2.0982187,
          57.1489393
        ]
      },
      "id": "node/2525781630"
    },
    {
      "type": "Feature",
      "properties": {
        "@id": "node/2525806963",
        "addr:city": "Aberdeen",
        "addr:housenumber": "16-18",
        "addr:postcode": "AB10 1JX",
        "addr:street": "Schoolhill",
        "amenity": "pub",
        "fhrs:authority": "Aberdeen City",
        "fhrs:id": "592922",
        "fhrs:local_authority_id": "EHDC3388",
        "name": "Wordies Ale House",
        "source": "bing;survey",
        "source:addr": "fhrs"
      },
      "geometry": {
        "type": "Point",
        "coordinates": [
          -2.0998625,
          57.1481816
        ]
      },
      "id": "node/2525806963"
    },
    {
      "type": "Feature",
      "properties": {
        "@id": "node/2528832872",
        "addr:city": "Aberdeen",
        "addr:housenumber": "6",
        "addr:postcode": "AB11 6JJ",
        "addr:street": "Bridge Street",
        "amenity": "pub",
        "fhrs:authority": "Aberdeen City",
        "fhrs:id": "1347989",
        "fhrs:local_authority_id": "319",
        "fixme": "position not confirmed - adjacent to road arrows but not visible on bing",
        "name": "Bridge Bar",
        "source": "survey",
        "source:addr": "fhrs"
      },
      "geometry": {
        "type": "Point",
        "coordinates": [
          -2.1022234,
          57.145307
        ]
      },
      "id": "node/2528832872"
    },
    {
      "type": "Feature",
      "properties": {
        "@id": "node/2538430930",
        "addr:city": "Aberdeen",
        "addr:housenumber": "24",
        "addr:postcode": "AB11 6PH",
        "addr:street": "Exchange Street",
        "amenity": "pub",
        "fhrs:authority": "Aberdeen City",
        "fhrs:id": "593509",
        "fhrs:local_authority_id": "EHDC9090",
        "name": "Spirit Level",
        "source": "survey",
        "source:addr": "fhrs"
      },
      "geometry": {
        "type": "Point",
        "coordinates": [
          -2.0969748,
          57.1455461
        ]
      },
      "id": "node/2538430930"
    },
    {
      "type": "Feature",
      "properties": {
        "@id": "node/2540149917",
        "addr:city": "Aberdeen",
        "addr:housenumber": "10",
        "addr:postcode": "AB11 5LY",
        "addr:street": "Trinity Street",
        "amenity": "pub",
        "fhrs:authority": "Aberdeen City",
        "fhrs:id": "592719",
        "fhrs:local_authority_id": "EHDC1478",
        "name": "Aitchie's Ale House",
        "source:addr": "fhrs"
      },
      "geometry": {
        "type": "Point",
        "coordinates": [
          -2.0981822,
          57.1451373
        ]
      },
      "id": "node/2540149917"
    },
    {
      "type": "Feature",
      "properties": {
        "@id": "node/2607284145",
        "addr:city": "Aberdeen",
        "addr:country": "GB",
        "addr:housenumber": "213",
        "addr:postcode": "AB11 6BA",
        "addr:street": "Union Street",
        "amenity": "pub",
        "email": "info@thegrillaberdeen.co.uk",
        "fhrs:authority": "Aberdeen City",
        "fhrs:id": "592727",
        "fhrs:local_authority_id": "EHDC1582",
        "name": "The Grill",
        "opening_hours": "Mo-Fr 10:00-24:00; Sa 00:00-01:00,10:00-24:00; Su 00:00-01:00,12:30-24:00",
        "operator": "The McGinty's Group",
        "phone": "+44 1224 583 563",
        "source": "fhrs",
        "source:addr": "fhrs",
        "website": "https://www.thegrillaberdeen.co.uk/"
      },
      "geometry": {
        "type": "Point",
        "coordinates": [
          -2.1043044,
          57.1448645
        ]
      },
      "id": "node/2607284145"
    },
    {
      "type": "Feature",
      "properties": {
        "@id": "node/2645845724",
        "addr:city": "Aberdeen",
        "addr:housenumber": "7",
        "addr:postcode": "AB11 6ND",
        "addr:street": "Stirling Street",
        "amenity": "pub",
        "contact:phone": "+44 1224 212373",
        "fhrs:authority": "Aberdeen City",
        "fhrs:id": "1348089",
        "fhrs:local_authority_id": "418",
        "internet_access": "wlan",
        "internet_access:fee": "no",
        "name": "CASC",
        "opening_hours": "Su-Th 11:00-00:00, Fr-Sa 11:00-01:00",
        "website": "https://www.cascnation.com/"
      },
      "geometry": {
        "type": "Point",
        "coordinates": [
          -2.0977501,
          57.1459015
        ]
      },
      "id": "node/2645845724"
    },
    {
      "type": "Feature",
      "properties": {
        "@id": "node/2728596452",
        "addr:city": "Aberdeen",
        "addr:housenumber": "6",
        "addr:postcode": "AB11 6HB",
        "addr:street": "Crown Street",
        "amenity": "pub",
        "fhrs:authority": "Aberdeen City",
        "fhrs:id": "623578",
        "fhrs:local_authority_id": "EHDC11279",
        "fhrs:localauthoritybusinessID": "EHDC11279",
        "name": "The Stag",
        "operator": "The McGinty's Group",
        "source": "survey",
        "source:addr": "fhrs"
      },
      "geometry": {
        "type": "Point",
        "coordinates": [
          -2.1038767,
          57.1447299
        ]
      },
      "id": "node/2728596452"
    },
    {
      "type": "Feature",
      "properties": {
        "@id": "node/2929698385",
        "addr:city": "Aberdeen",
        "addr:country": "GB",
        "addr:housenumber": "423-425",
        "addr:postcode": "AB11 6DA",
        "addr:street": "Union Street",
        "alt_name": "Lloyds No 1 Bar",
        "amenity": "pub",
        "brand": "Wetherspoon",
        "brand:wikidata": "Q6109362",
        "brand:wikipedia": "en:Wetherspoons",
        "camra": "yes",
        "check_date": "2022-09-24",
        "cuisine": "regional",
        "delivery": "no",
        "diet:vegan": "yes",
        "diet:vegetarian": "yes",
        "drink:beer": "yes",
        "drink:coffee": "yes",
        "drink:soft_drink": "yes",
        "drink:wine": "yes",
        "fhrs:authority": "Aberdeen City",
        "fhrs:id": "1346756",
        "fhrs:local_authority_id": "1097",
        "fhrs:localauthoritybusinessID": "EHDC7970",
        "food": "yes",
        "internet_access": "wlan",
        "internet_access:fee": "no",
        "microbrewery": "no",
        "name": "The Justice Mill",
        "opening_hours": "Mo-Th 08:00-00:00; Fr-Sa 08:00-01:00; Su 09:00-00:00",
        "operator": "Wetherspoon",
        "outdoor_seating": "no",
        "payment:american_express": "yes",
        "payment:mastercard": "yes",
        "payment:visa": "yes",
        "payment:visa_debit": "yes",
        "phone": "+44 1224 252410",
        "real_fire": "no",
        "smoking": "outside",
        "source": "survey",
        "source:addr": "fhrs",
        "source:alt_name": "fhrs",
        "takeaway": "no",
        "website": "https://www.jdwetherspoon.com/pubs/all-pubs/scotland/aberdeen/the-justice-mill-aberdeen",
        "wheelchair": "yes"
      },
      "geometry": {
        "type": "Point",
        "coordinates": [
          -2.1096856,
          57.1433883
        ]
      },
      "id": "node/2929698385"
    },
    {
      "type": "Feature",
      "properties": {
        "@id": "node/3200684765",
        "addr:city": "Aberdeen",
        "addr:country": "GB",
        "addr:housenumber": "9",
        "addr:postcode": "AB11 6HZ",
        "addr:street": "Bridge Place",
        "amenity": "pub",
        "fhrs:authority": "Aberdeen City",
        "fhrs:id": "1347271",
        "fhrs:local_authority_id": "1634",
        "name": "Riley's Sports Bar & Bingo Club",
        "opening_hours": "12:00-24:00",
        "phone": "+44 1224 591542",
        "website": "https://www.rileys.co.uk/clubs/1-rileys-sports-bar-bingo-club-aberdeen/"
      },
      "geometry": {
        "type": "Point",
        "coordinates": [
          -2.1022977,
          57.144624
        ]
      },
      "id": "node/3200684765"
    },
    {
      "type": "Feature",
      "properties": {
        "@id": "node/3201719885",
        "accommodation": "yes",
        "addr:city": "Aberdeen",
        "addr:country": "GB",
        "addr:housenumber": "13",
        "addr:postcode": "AB10 1RJ",
        "addr:street": "North Silver Street",
        "amenity": "pub",
        "brand": "Belhaven Pubs",
        "brand:wikidata": "Q105516156",
        "fhrs:authority": "Aberdeen City",
        "fhrs:id": "1202259",
        "fhrs:local_authority_id": "EHDC13263",
        "name": "The Globe Inn",
        "operator": "Belhaven Pubs",
        "phone": "+44 1224 624 258",
        "website": "http://www.theglobeinn-aberdeen.co.uk/"
      },
      "geometry": {
        "type": "Point",
        "coordinates": [
          -2.105955,
          57.1466809
        ]
      },
      "id": "node/3201719885"
    },
    {
      "type": "Feature",
      "properties": {
        "@id": "node/3201719886",
        "addr:city": "Aberdeen",
        "addr:country": "GB",
        "addr:housenumber": "11",
        "addr:postcode": "AB10 1RJ",
        "addr:street": "North Silver Street",
        "amenity": "pub",
        "check_date": "2023-08-11",
        "fhrs:authority": "Aberdeen City",
        "fhrs:id": "592890",
        "fhrs:local_authority_id": "EHDC3117",
        "name": "Under The Hammer",
        "opening_hours": "Mo-We 17:00-00:00; Th 17:00-01:00; Fr 16:00-01:00; Sa 14:00-01:00; Su 18:00-00:00",
        "real_ale": "yes"
      },
      "geometry": {
        "type": "Point",
        "coordinates": [
          -2.1058869,
          57.1465754
        ]
      },
      "id": "node/3201719886"
    },
    {
      "type": "Feature",
      "properties": {
        "@id": "node/6053271305",
        "addr:city": "Aberdeen",
        "addr:housenumber": "224",
        "addr:postcode": "AB10 1TL",
        "addr:street": "Union Street",
        "amenity": "pub",
        "brand": "Belhaven Pubs",
        "brand:wikidata": "Q105516156",
        "name": "Molly Malones",
        "operator": "Belhaven Pubs",
        "source": "survey",
        "source:addr": "FHRS Open Data"
      },
      "geometry": {
        "type": "Point",
        "coordinates": [
          -2.1064044,
          57.1445897
        ]
      },
      "id": "node/6053271305"
    },
    {
      "type": "Feature",
      "properties": {
        "@id": "node/6055343961",
        "addr:city": "Aberdeen",
        "addr:housenumber": "37",
        "addr:postcode": "AB10 1SB",
        "addr:street": "Summer Street",
        "amenity": "pub",
        "fhrs:authority": "Aberdeen City",
        "fhrs:id": "592179",
        "fhrs:local_authority_id": "EHDC10188",
        "name": "McNasty's",
        "source": "survey (distant view)",
        "source:addr": "FHRS Open Data"
      },
      "geometry": {
        "type": "Point",
        "coordinates": [
          -2.1094123,
          57.1448837
        ]
      },
      "id": "node/6055343961"
    }
  ]
}